QIANFAN-113             
1 68640U 26075E   26194.88384926  .00000060  00000+0  73726-4 0  9998
2 68640  88.9918 318.2707 0001958 106.3038 253.8329 13.51018257 13415
QIANFAN-114             
1 68641U 26075F   26194.81797878  .00000074  00000+0  96170-4 0  9999
2 68641  88.9913 318.2953 0002039 103.8289 256.3089 13.51017028 13398
QIANFAN-115             
1 68642U 26075G   26194.84669655  .00000056  00000+0  67448-4 0  9990
2 68642  88.9913 318.2996 0002181 106.6205 253.5186 13.51014023 13392
QIANFAN-116             
1 68643U 26075H   26194.83435756  .00000062  00000+0  76713-4 0  9995
2 68643  88.9906 318.2590 0001918 113.5769 246.5583 13.51014329 13408
QIANFAN-117             
1 68644U 26075J   26194.82201439  .00000063  00000+0  79008-4 0  9995
2 68644  88.9911 318.2772 0002102 110.6604 249.4772 13.51024224 13406
QIANFAN-118             
1 68645U 26075K   26194.55868006 -.00000057  00000+0 -10690-3 0  9991
2 68645  88.9913 318.3133 0001829 100.2868 259.8489 13.51013822 13360
QIANFAN-119             
1 68646U 26075L   26194.60811011  .00000054  00000+0  65319-4 0  9996
2 68646  88.9915 318.3039 0002195 112.6160 247.5223 13.51020353 13375
QIANFAN-120             
1 68647U 26075M   26194.54650482  .00000057  00000+0  69509-4 0  9991
2 68647  88.9917 318.2957 0002344 113.1641 246.9757 13.51020781 13372
QIANFAN-121             
1 68648U 26075N   26194.57105502  .00000060  00000+0  73585-4 0  9996
2 68648  88.9915 318.2975 0002036 101.8380 258.2999 13.51012885 13373
QIANFAN-122             
1 68649U 26075P   26194.56295050  .00000063  00000+0  78733-4 0  9997
2 68649  88.9914 318.2962 0002110 112.7956 247.3419 13.51016551 13361
QIANFAN-123             
1 68650U 26075Q   26194.60413525  .00000059  00000+0  72290-4 0  9990
2 68650  88.9910 318.2812 0002200 118.0158 242.1216 13.51014943 13356
QIANFAN-124             
1 68651U 26075R   26194.55472662  .00000060  00000+0  75010-4 0  9997
2 68651  88.9913 318.2958 0002113 114.7708 245.3664 13.51016103 13372
QIANFAN-125             
1 68652U 26075S   26194.56694766  .00000059  00000+0  72954-4 0  9992
2 68652  88.9913 318.2967 0002006 101.9665 258.1711 13.51013088 13378
QIANFAN-126             
1 68653U 26075T   26194.57525988  .00000049  00000+0  56773-4 0  9993
2 68653  88.9917 318.2626 0002217 117.7404 242.3973 13.51018190 13391
QIANFAN-127             
1 69073U 26104A   26194.76658208 -.01855349  00000+0 -29196+1 0  9995
2 69073  88.9908 338.7571 0012021  29.7400 330.4434 13.54393255  8741
QIANFAN-128             
1 69074U 26104B   26194.82513369  .00000003  00000+0 -12827-4 0  9995
2 69074  88.9893 338.7842 0009740  14.3706 345.7724 13.56815171  8737
